FALCON 9 DEB            
1 54019U 22125BH  22303.30138063  .00686698  24754-3  89269-3 0  9990
2 54019  53.2185 327.6747 0007882   5.6673 354.4449 16.06426443  4208
CENTISPACE-1 S5         
1 54020U 22126A   22303.83696075  .00000481  00000+0  14329-3 0  9992
2 54020  54.9969  94.4357 0013938 349.5387  10.5315 14.57931046  3402
CENTISPACE-1 S6         
1 54021U 22126B   22303.83308827  .00000420  00000+0  12965-3 0  9995
2 54021  54.9970  94.4155 0015695 349.3500  10.7157 14.58174875  3392
CZ-11H R/B              
1 54022U 22126C   22303.95292067  .00028164  00000+0  47688-3 0  9992
2 54022  56.1439  89.2712 0338897 359.6578   0.4171 15.06875519  3523
OTB-3-GAZELLE           
1 54023U 22127A   22303.78676989 -.00000043  00000+0  00000+0 0  9994
2 54023  98.3163 302.5560 0012496 225.2500 134.7678 14.41647502  3323
ELECTRON KICK STAGE R/B 
1 54024U 22127B   22303.98172008  .00003152  00000+0  43055-3 0  9994
2 54024  98.2941 303.8311 0140510 308.4668  50.4004 14.72755280  3417
ELECTRON R/B            
1 54025U 22127C   22303.95968207  .00192719  97139-5  17407-2 0  9990
2 54025  98.3306 305.7109 0335423 139.0469 223.6488 15.20640943  3521
GALAXY 33               
1 54026U 22128A   22303.66366118  .00000079  00000+0  00000+0 0  9993
2 54026   0.0141 279.9323 0002388 299.6821 285.3033  1.00272755   450
GALAXY 34               
1 54027U 22128B   22303.56125269  .00000130  00000+0  00000+0 0  9991
2 54027   0.0679  78.0558 0000780 186.8943 188.0634  1.00273962   481
FALCON 9 R/B            
1 54028U 22128C   22303.65822678  .00003901  00000+0  99940-3 0  9994
2 54028  26.8692 178.4398 5936823 203.2739 111.9039  4.12073107   892
ASO-S                   
1 54029U 22129A   22303.82731140  .00000149  00000+0  49008-4 0  9990
2 54029  98.2680 308.9665 0014379 196.0949 163.9800 14.50862541  3178
CZ-2D R/B               
1 54030U 22129B   22303.97467634  .00000267  00000+0  72544-4 0  9994
2 54030  98.1950 308.9880 0019351  51.6757 308.6178 14.54810874  3202
COSMOS 2559 [GLONASS-K] 
1 54031U 22130A   22301.51249543 -.00000055  00000+0  00000+0 0  9991
2 54031  64.7698   1.0327 0005871 241.7161 120.2201  2.13033595   392
FREGAT R/B              
1 54032U 22130B   22295.10579347 -.00000060  00000+0  00000+0 0  9993
2 54032  64.7805   1.2292 0026427 174.2783 242.8276  2.11046330   231
ANGOSAT 2               
1 54033U 22131A   22301.76008453  .00000096  00000+0  00000+0 0  9998
2 54033   0.0436 280.7101 0000673  71.8290 344.2468  0.99787637   166
BLOCK DM-SL R/B         
1 54034U 22131B   22294.89994812 -.00000134  00000+0  00000+0 0  9991
2 54034   0.1517 285.1102 0081626 172.5310 263.3147  0.97749073    94
HJ-2E                   
1 54035U 22132A   22303.74887648  .00002673  00000+0  11367-3 0  9997
2 54035  97.3944 309.0515 0012461 201.1466 275.5938 15.23835217  2707
2022-132B               
1 54036U 22132B   22303.84009611  .00155420  00000+0  44236-2 0  9994
2 54036  97.3533 309.2991 0031117 254.1763 228.1303 15.35021806  2736
2022-132C               
1 54037U 22132C   22303.99525720  .00023159  00000+0  22268-2 0  9999
2 54037  97.6522 308.6681 0189351 112.8904 329.2423 14.80416334  2669
2022-132D               
1 54038U 22132D   22304.05057490  .00040196  00000+0  19398-2 0  9992
2 54038  97.5882 309.5001 0099646 170.6801 223.4041 15.14200555  2732
CZ-2C R/B               
1 54039U 22132E   22303.78820904  .00003493  00000+0  18130-3 0  9993
2 54039  97.2517 308.3649 0048793 148.8269  25.0506 15.15713836  2691
2022-132F               
1 54040U 22132F   22304.00359698  .00038431  00000+0  21050-2 0  9992
2 54040  97.1601 308.3626 0123459 161.4200 278.1426 15.07716440  2710
2022-132G               
1 54041U 22132G   22304.02653022  .00019555  00000+0  16789-2 0  9992
2 54041  97.1921 307.9714 0151210 109.1264 335.7087 14.88988370  2684
YAOGAN-36 02A           
1 54042U 22133A   22303.84366591  .00018229  00000+0  72889-3 0  9996
2 54042  34.9974 185.6523 0005816  38.0657  49.8931 15.24228723  2453
YAOGAN-36 02B           
1 54043U 22133B   22303.83508336  .00009329  00000+0  37367-3 0  9994
2 54043  34.9999 185.6987 0009327  71.9379 332.5680 15.24252715  2454
CZ-2D R/B               
1 54044U 22133C   22303.94985088  .00026474  00000+0  10164-2 0  9995
2 54044  35.0019 184.8509 0007678  57.8205 302.3276 15.25512461  2475
YAOGAN-36 02C           
1 54045U 22133D   22303.19102829  .00021493  00000+0  86445-3 0  9999
2 54045  34.9963 189.7069 0010466  60.4455  61.0120 15.23971759  2354
CZ-2D DEB               
1 54046U 22133E   22303.83746311  .00035693  00000+0  13833-2 0  9998
2 54046  34.9997 185.6158 0006678  44.9912  37.3069 15.25153830  2454
2022-134A               
1 54048U 22134A   22300.05421303  .00000029  00000+0  00000+0 0  9997
2 54048  23.4914 298.8176 7874179 183.3957 156.2566  1.25250289   157
2022-134B               
1 54049U 22134B   22303.47749845 -.00000071  00000+0 -51872-3 0  9997
2 54049  26.7357 298.0188 8048604 184.8339 165.2604  1.34296080   205
COSMOS 2560             
1 54050U 22135A   22303.79869207  .00240172  00000+0  11263-2 0  9995
2 54050  96.3444  30.6192 0010063 196.1051 318.3854 15.82505121  2352
STARLINK-5195           
1 54051U 22136A   22303.91668981 -.01199107  00000+0 -84897-2 0  9994
2 54051  53.2172  96.9226 0000253 335.5490 301.5499 15.76109019  1304
STARLINK-5189           
1 54052U 22136B   22303.91668981 -.00765743  00000+0 -36346-2 0  9995
2 54052  53.2172  96.7502 0003156  51.4154 317.2075 15.84075345  1303
STARLINK-5176           
1 54053U 22136C   22303.91668981 -.01136156  00000+0 -79788-2 0  9994
2 54053  53.2172  96.9215 0005526 270.4735   7.1890 15.76076106  1305
STARLINK-5163           
1 54054U 22136D   22303.91668981 -.01193797  00000+0 -84219-2 0  9994
2 54054  53.2172  96.9174 0000821 287.5433 351.6749 15.76171374  1300
STARLINK-5158           
1 54055U 22136E   22303.91668981 -.01195897  00000+0 -84480-2 0  9998
2 54055  53.2172  96.9193 0000175  44.6076 234.0951 15.76152421  1300
STARLINK-5226           
1 54056U 22136F   22303.91668981 -.01207763  00000+0 -85282-2 0  9996
2 54056  53.2172  96.9165 0000180 325.2631 314.5101 15.76190463  1300
STARLINK-5216           
1 54057U 22136G   22303.91668981 -.01202096  00000+0 -84760-2 0  9991
2 54057  53.2172  96.9160 0000518   9.5878 270.7005 15.76205979  1301
STARLINK-5167           
1 54058U 22136H   22303.91668981 -.01201379  00000+0 -84589-2 0  9994
2 54058  53.2171  96.9132 0000373  42.8245 238.5223 15.76237564  1306
STARLINK-5173           
1 54059U 22136J   22303.91668981 -.01092618  00000+0 -76356-2 0  9992
2 54059  53.2174  96.9149 0001109  76.4633 204.3909 15.76141440  1309
STARLINK-5169           
1 54060U 22136K   22303.91668981 -.01034185  00000+0 -45054-2 0  9990
2 54060  53.2172  96.3880 0001139  71.0001 104.3638 15.86499786  1306
STARLINK-5209           
1 54061U 22136L   22303.91668981  .00191846  00000+0  72823-3 0  9991
2 54061  53.2166  96.7727 0019252  74.8456 276.6373 15.86296505  1307
STARLINK-5170           
1 54062U 22136M   22303.91668981 -.01213982  00000+0 -85400-2 0  9995
2 54062  53.2172  96.9114 0001321  37.8213 244.5767 15.76278365  1309
STARLINK-5225           
1 54063U 22136N   22303.91668981 -.01201172  00000+0 -84372-2 0  9991
2 54063  53.2172  96.9108 0000663 333.6938 309.2307 15.76288104  1303
STARLINK-5172           
1 54064U 22136P   22303.91668981 -.01173587  00000+0 -79937-2 0  9991
2 54064  53.2171  96.8653 0001426  34.3683 270.0216 15.76903191  1301
STARLINK-5187           
1 54065U 22136Q   22303.91668981 -.01205532  00000+0 -84597-2 0  9996
2 54065  53.2172  96.9089 0000250 348.5148 295.4604 15.76323978  1308
STARLINK-5151           
1 54066U 22136R   22303.91668981 -.01204841  00000+0 -84605-2 0  9999
2 54066  53.2172  96.9094 0000311 355.2033 288.2466 15.76306782  1301
STARLINK-5174           
1 54067U 22136S   22303.91668981 -.01201386  00000+0 -84145-2 0  9990
2 54067  53.2172  96.9069 0000773 353.7082 291.3269 15.76351975  1303
STARLINK-5222           
1 54068U 22136T   22303.91668981 -.00618630  00000+0 -42063-2 0  9997
2 54068  53.2174  96.9076 0001655 154.8830 129.8250 15.75916899  1301
STARLINK-5223           
1 54069U 22136U   22303.91668981 -.01198311  00000+0 -83686-2 0  9994
2 54069  53.2172  96.9026 0000254  14.2896 272.8455 15.76414671  1308
STARLINK-5181           
1 54070U 22136V   22303.91668981 -.01206795  00000+0 -84514-2 0  9993
2 54070  53.2172  96.9054 0000222 355.8313 289.7244 15.76372754  1302
STARLINK-5168           
1 54071U 22136W   22303.91668981 -.01210040  00000+0 -84635-2 0  9996
2 54071  53.2172  96.9037 0000198 341.5286 305.0712 15.76408905  1307
STARLINK-5144           
1 54072U 22136X   22303.91668981 -.01202693  00000+0 -84133-2 0  9995
2 54072  53.2172  96.9044 0000317 349.6733 296.4047 15.76387010  1302
STARLINK-5146           
1 54073U 22136Y   22303.91668981 -.01195794  00000+0 -83285-2 0  9996
2 54073  53.2172  96.8995 0000799 329.6333 319.0642 15.76464029  1304
STARLINK-5192           
1 54074U 22136Z   22303.91668981 -.01205589  00000+0 -84171-2 0  9996
2 54074  53.2172  96.9013 0000321  12.9289 274.7209 15.76437696  1306
STARLINK-5212           
1 54075U 22136AA  22303.91668981 -.01200129  00000+0 -83564-2 0  9997
2 54075  53.2172  96.8987 0000373 350.7338 298.4785 15.76484589  1306
STARLINK-5201           
1 54076U 22136AB  22303.91668981 -.01201237  00000+0 -83786-2 0  9995
2 54076  53.2172  96.9003 0000186 323.0684 325.1101 15.76450188  1304
STARLINK-5171           
1 54077U 22136AC  22303.91668981 -.01004168  00000+0 -68776-2 0  9992
2 54077  53.2172  96.8947 0000823  77.4200 213.4249 15.76390899  1307
STARLINK-5138           
1 54078U 22136AD  22303.91668981 -.01187748  00000+0 -82471-2 0  9997
2 54078  53.2172  96.8963 0001670  25.1805 265.0893 15.76504544  1300
